[{"OBJECT_NAME":"STARLINK-3850","OBJECT_ID":"2022-045M","EPOCH":"2026-03-09T15:49:40.943424","MEAN_MOTION":15.08840838,"ECCENTRICITY":9.886e-5,"INCLINATION":53.2169,"RA_OF_ASC_NODE":199.376,"ARG_OF_PERICENTER":82.7055,"MEAN_ANOMALY":277.405,"EPHEMERIS_TYPE":0,"CLASSIFICATION_TYPE":"U","NORAD_CAT_ID":52342,"ELEMENT_SET_NO":999,"REV_AT_EPOCH":21577,"BSTAR":-0.00024579056,"MEAN_MOTION_DOT":-4.197e-5,"MEAN_MOTION_DDOT":0},{"OBJECT_NAME":"COSMOS 2058","OBJECT_ID":"1990-010A","EPOCH":"2026-03-09T23:30:01.891584","MEAN_MOTION":15.11324867,"ECCENTRICITY":0.00093159,"INCLINATION":82.4669,"RA_OF_ASC_NODE":47.1427,"ARG_OF_PERICENTER":343.3032,"MEAN_ANOMALY":16.789,"EPHEMERIS_TYPE":0,"CLASSIFICATION_TYPE":"U","NORAD_CAT_ID":20465,"ELEMENT_SET_NO":999,"REV_AT_EPOCH":94228,"BSTAR":0.00029943939,"MEAN_MOTION_DOT":5.077e-5,"MEAN_MOTION_DDOT":0}]
